{"features":[{"type":"Feature","properties":{"place_name":"kolkata","type":"bridge collapse","wid":"dummy"},"geometry":{"coordinates":[88.248252,22.4525],"type":"Point"},"id":"04085879581f05ffa1ff2399e6d086dc"},{"type":"Feature","properties":{"place_name":"Japan","type":"flood","wid":"dummy"},"geometry":{"coordinates":[133.765209,34.601116],"type":"Point"},"id":"1dd1c89d7829d3d3d5f4189f305d5595"},{"type":"Feature","properties":{"place_name":"North Korea","type":"flood","wid":"dummy"},"geometry":{"coordinates":[129.221863,42.098442],"type":"Point"},"id":"5e4dcec38f3e303ad0f1c3396b9af774"},{"type":"Feature","properties":{"place_name":"Guatemala","type":"volcanic eruption","wid":"dummy"},"geometry":{"coordinates":[-90.952491,14.476787],"type":"Point"},"id":"6e3b2a0a038384551648477b72d91e49"},{"type":"Feature","properties":{"place_name":"Papua New Guinea","type":"earthquake","wid":"dummy"},"geometry":{"coordinates":[146.1,-6.36667],"type":"Point"},"id":"country.13569484256220160"},{"type":"Feature","properties":{"place_name":"Nigeria","type":"flood","wid":"dummy"},"geometry":{"coordinates":[8,9],"type":"Point"},"id":"country.15478660959034950"},{"type":"Feature","properties":{"place_name":"Indonesia","type":"earthquake","wid":"dummy"},"geometry":{"coordinates":[118,-2],"type":"Point"},"id":"country.2945973043114360"},{"type":"Feature","properties":{"place_name":"kerala","type":"flood","wid":"dummy"},"geometry":{"coordinates":[76.169347,11.129597],"type":"Point"},"id":"edd1575fc4e80f29467ecda6949916d7"},{"type":"Feature","properties":{"place_name":"Madikeri, Karnataka, India","type":"flood","wid":"dummy"},"geometry":{"coordinates":[75.73333,12.41667],"type":"Point"},"id":"place.15593968580235970"},{"type":"Feature","properties":{"place_name":"Karachi, Sind, Pakistan","type":"heatwave","wid":"dummy"},"geometry":{"coordinates":[67.114544,24.870862],"type":"Point"},"id":"place.7148467886841210"},{"type":"Feature","properties":{"place_name":"Palu, Sulawesi Tengah, Indonesia","type":"tsunami","wid":"dummy"},"geometry":{"coordinates":[119.83333,-0.9],"type":"Point"},"id":"place.9809379379599460"},{"properties":{"place_name":"test2","type":"testsomething"},"geometry":{"coordinates":[21,43]}},{"properties":{"place_name":"test3","type":"testt"},"geometry":{"coordinates":[89,39]}}],"type":"FeatureCollection"}